[{"OBJECT_NAME":"GEISAT PRECURSOR","OBJECT_ID":"2023-084C","EPOCH":"2026-03-09T22:20:25.833120","MEAN_MOTION":15.33054389,"ECCENTRICITY":0.00051675,"INCLINATION":97.6055,"RA_OF_ASC_NODE":206.8263,"ARG_OF_PERICENTER":345.1842,"MEAN_ANOMALY":14.9247,"EPHEMERIS_TYPE":0,"CLASSIFICATION_TYPE":"U","NORAD_CAT_ID":56934,"ELEMENT_SET_NO":999,"REV_AT_EPOCH":15231,"BSTAR":0.00033857167,"MEAN_MOTION_DOT":0.00010736,"MEAN_MOTION_DDOT":0},{"OBJECT_NAME":"STARLINK-35291","OBJECT_ID":"2025-235AB","EPOCH":"2026-03-09T17:39:12.870432","MEAN_MOTION":15.30203426,"ECCENTRICITY":0.00010426,"INCLINATION":53.1594,"RA_OF_ASC_NODE":245.3982,"ARG_OF_PERICENTER":117.4131,"MEAN_ANOMALY":242.6976,"EPHEMERIS_TYPE":0,"CLASSIFICATION_TYPE":"U","NORAD_CAT_ID":66083,"ELEMENT_SET_NO":999,"REV_AT_EPOCH":2289,"BSTAR":0.00065539677,"MEAN_MOTION_DOT":0.00019104,"MEAN_MOTION_DDOT":0}]
